{
  "type": "FeatureCollection",
  "features": [
    {
      "type": "Feature",
      "properties": {
        "norad_id": 34459,
        "name": "COSMOS 2251 DEB",
        "group": "cosmos-2251-debris",
        "lat": -0.7407605088086278,
        "lon": 91.411229458261,
        "alt_km": 1027.6906810360624,
        "timestamp": "2025-12-02T19:35:50.948919+00:00",
        "meta_object_name": "COSMOS 2251 DEB",
        "meta_object_id": "1993-036TC",
        "meta_epoch": "2025-12-01T20:26:41.411616",
        "meta_mean_motion": 14.00463848,
        "meta_eccentricity": 0.0191841,
        "meta_inclination": 74.0791,
        "meta_ra_of_asc_node": 272.8664,
        "meta_arg_of_pericenter": 345.1217,
        "meta_mean_anomaly": 14.4317,
        "meta_ephemeris_type": 0,
        "meta_classification_type": "U",
        "meta_norad_cat_id": 34459,
        "meta_element_set_no": 999,
        "meta_rev_at_epoch": 85559,
        "meta_bstar": 0.00064505561,
        "meta_mean_motion_dot": 1.098e-05,
        "meta_mean_motion_ddot": 0,
        "tle_line1": "1 34459U 93036TC  25335.85186819  .00001098  00000+0  64506-3 0  9991",
        "tle_line2": "2 34459  74.0791 272.8664 0191841 345.1217  14.4317 14.00463848855597"
      },
      "geometry": {
        "type": "Point",
        "coordinates": [
          91.411229458261,
          -0.7407605088086278
        ]
      }
    },
    {
      "type": "Feature",
      "properties": {
        "norad_id": 34464,
        "name": "COSMOS 2251 DEB",
        "group": "cosmos-2251-debris",
        "lat": 16.596307937650824,
        "lon": -85.58574946296208,
        "alt_km": 495.08093880650995,
        "timestamp": "2025-12-02T19:35:50.948929+00:00",
        "meta_object_name": "COSMOS 2251 DEB",
        "meta_object_id": "1993-036TH",
        "meta_epoch": "2025-12-02T11:00:41.737824",
        "meta_mean_motion": 15.24739093,
        "meta_eccentricity": 0.0017484,
        "meta_inclination": 73.9897,
        "meta_ra_of_asc_node": 100.0808,
        "meta_arg_of_pericenter": 269.8942,
        "meta_mean_anomaly": 90.0254,
        "meta_ephemeris_type": 0,
        "meta_classification_type": "U",
        "meta_norad_cat_id": 34464,
        "meta_element_set_no": 999,
        "meta_rev_at_epoch": 89683,
        "meta_bstar": 0.00348,
        "meta_mean_motion_dot": 0.00087553,
        "meta_mean_motion_ddot": 0,
        "tle_line1": "1 34464U 93036TH  25336.45881641  .00087553  00000+0  34800-2 0  9992",
        "tle_line2": "2 34464  73.9897 100.0808 0017484 269.8942  90.0254 15.24739093896834"
      },
      "geometry": {
        "type": "Point",
        "coordinates": [
          -85.58574946296208,
          16.596307937650824
        ]
      }
    },
    {
      "type": "Feature",
      "properties": {
        "norad_id": 34468,
        "name": "COSMOS 2251 DEB",
        "group": "cosmos-2251-debris",
        "lat": -53.22871349139802,
        "lon": 113.23332807152934,
        "alt_km": 689.472731795363,
        "timestamp": "2025-12-02T19:35:50.948940+00:00",
        "meta_object_name": "COSMOS 2251 DEB",
        "meta_object_id": "1993-036TM",
        "meta_epoch": "2025-12-02T11:33:43.912800",
        "meta_mean_motion": 14.47581403,
        "meta_eccentricity": 0.0076263,
        "meta_inclination": 74.0113,
        "meta_ra_of_asc_node": 136.4213,
        "meta_arg_of_pericenter": 283.4079,
        "meta_mean_anomaly": 75.8587,
        "meta_ephemeris_type": 0,
        "meta_classification_type": "U",
        "meta_norad_cat_id": 34468,
        "meta_element_set_no": 999,
        "meta_rev_at_epoch": 88313,
        "meta_bstar": 0.00039821,
        "meta_mean_motion_dot": 1.491e-05,
        "meta_mean_motion_ddot": 0,
        "tle_line1": "1 34468U 93036TM  25336.48175825  .00001491  00000+0  39821-3 0  9995",
        "tle_line2": "2 34468  74.0113 136.4213 0076263 283.4079  75.8587 14.47581403883130"
      },
      "geometry": {
        "type": "Point",
        "coordinates": [
          113.23332807152934,
          -53.22871349139802
        ]
      }
    },
    {
      "type": "Feature",
      "properties": {
        "norad_id": 34472,
        "name": "COSMOS 2251 DEB",
        "group": "cosmos-2251-debris",
        "lat": -22.44669914810066,
        "lon": -58.7618240797776,
        "alt_km": 826.8423881262215,
        "timestamp": "2025-12-02T19:35:50.948951+00:00",
        "meta_object_name": "COSMOS 2251 DEB",
        "meta_object_id": "1993-036TR",
        "meta_epoch": "2025-11-30T08:45:33.274080",
        "meta_mean_motion": 13.70299802,
        "meta_eccentricity": 0.03272305,
        "meta_inclination": 74.0853,
        "meta_ra_of_asc_node": 118.499,
        "meta_arg_of_pericenter": 252.162,
        "meta_mean_anomaly": 104.3557,
        "meta_ephemeris_type": 0,
        "meta_classification_type": "U",
        "meta_norad_cat_id": 34472,
        "meta_element_set_no": 999,
        "meta_rev_at_epoch": 83557,
        "meta_bstar": 0.0011470938,
        "meta_mean_motion_dot": 1.453e-05,
        "meta_mean_motion_ddot": 0,
        "tle_line1": "1 34472U 93036TR  25334.36496845  .00001453  00000+0  11471-2 0  9991",
        "tle_line2": "2 34472  74.0853 118.4990 0327230 252.1620 104.3557 13.70299802835570"
      },
      "geometry": {
        "type": "Point",
        "coordinates": [
          -58.7618240797776,
          -22.44669914810066
        ]
      }
    },
    {
      "type": "Feature",
      "properties": {
        "norad_id": 34474,
        "name": "COSMOS 2251 DEB",
        "group": "cosmos-2251-debris",
        "lat": 42.354170680548265,
        "lon": 148.41748893883602,
        "alt_km": 829.726466583922,
        "timestamp": "2025-12-02T19:35:50.948961+00:00",
        "meta_object_name": "COSMOS 2251 DEB",
        "meta_object_id": "1993-036TT",
        "meta_epoch": "2025-12-02T11:07:59.121408",
        "meta_mean_motion": 14.06311344,
        "meta_eccentricity": 0.0197721,
        "meta_inclination": 74.0785,
        "meta_ra_of_asc_node": 344.1163,
        "meta_arg_of_pericenter": 60.6093,
        "meta_mean_anomaly": 87.8152,
        "meta_ephemeris_type": 0,
        "meta_classification_type": "U",
        "meta_norad_cat_id": 34474,
        "meta_element_set_no": 999,
        "meta_rev_at_epoch": 85364,
        "meta_bstar": 0.0018684,
        "meta_mean_motion_dot": 3.655e-05,
        "meta_mean_motion_ddot": 0,
        "tle_line1": "1 34474U 93036TT  25336.46387872  .00003655  00000+0  18684-2 0  9994",
        "tle_line2": "2 34474  74.0785 344.1163 0197721  60.6093  87.8152 14.06311344853642"
      },
      "geometry": {
        "type": "Point",
        "coordinates": [
          148.41748893883602,
          42.354170680548265
        ]
      }
    },
    {
      "type": "Feature",
      "properties": {
        "norad_id": 34476,
        "name": "COSMOS 2251 DEB",
        "group": "cosmos-2251-debris",
        "lat": -66.60187997912041,
        "lon": -39.25501594101462,
        "alt_km": 871.4194094185832,
        "timestamp": "2025-12-02T19:35:50.948972+00:00",
        "meta_object_name": "COSMOS 2251 DEB",
        "meta_object_id": "1993-036TV",
        "meta_epoch": "2025-12-02T07:55:37.515648",
        "meta_mean_motion": 13.81874197,
        "meta_eccentricity": 0.0318875,
        "meta_inclination": 74.0058,
        "meta_ra_of_asc_node": 100.0469,
        "meta_arg_of_pericenter": 321.9324,
        "meta_mean_anomaly": 35.9644,
        "meta_ephemeris_type": 0,
        "meta_classification_type": "U",
        "meta_norad_cat_id": 34476,
        "meta_element_set_no": 999,
        "meta_rev_at_epoch": 83494,
        "meta_bstar": 0.0032375,
        "meta_mean_motion_dot": 5.092e-05,
        "meta_mean_motion_ddot": 0,
        "tle_line1": "1 34476U 93036TV  25336.33029532  .00005092  00000+0  32375-2 0  9998",
        "tle_line2": "2 34476  74.0058 100.0469 0318875 321.9324  35.9644 13.81874197834944"
      },
      "geometry": {
        "type": "Point",
        "coordinates": [
          -39.25501594101462,
          -66.60187997912041
        ]
      }
    },
    {
      "type": "Feature",
      "properties": {
        "norad_id": 34477,
        "name": "COSMOS 2251 DEB",
        "group": "cosmos-2251-debris",
        "lat": -0.3384108651789421,
        "lon": 88.31121758384981,
        "alt_km": 698.8188091280381,
        "timestamp": "2025-12-02T19:35:50.948982+00:00",
        "meta_object_name": "COSMOS 2251 DEB",
        "meta_object_id": "1993-036TW",
        "meta_epoch": "2025-12-02T10:02:42.827136",
        "meta_mean_motion": 14.56732464,
        "meta_eccentricity": 0.0076863,
        "meta_inclination": 73.9783,
        "meta_ra_of_asc_node": 89.1664,
        "meta_arg_of_pericenter": 278.1924,
        "meta_mean_anomaly": 154.2864,
        "meta_ephemeris_type": 0,
        "meta_classification_type": "U",
        "meta_norad_cat_id": 34477,
        "meta_element_set_no": 999,
        "meta_rev_at_epoch": 88475,
        "meta_bstar": 0.0011364,
        "meta_mean_motion_dot": 5.26e-05,
        "meta_mean_motion_ddot": 0,
        "tle_line1": "1 34477U 93036TW  25336.41855124  .00005260  00000+0  11364-2 0  9994",
        "tle_line2": "2 34477  73.9783  89.1664 0076863 278.1924 154.2864 14.56732464884755"
      },
      "geometry": {
        "type": "Point",
        "coordinates": [
          88.31121758384981,
          -0.3384108651789421
        ]
      }
    }
  ]
}